[{"OBJECT_NAME":"SITRO-AIS 8 (ANOKHIN)","OBJECT_ID":"2023-091AD","EPOCH":"2026-03-09T23:44:40.058592","MEAN_MOTION":15.29359179,"ECCENTRICITY":0.0012509,"INCLINATION":97.5169,"RA_OF_ASC_NODE":133.2823,"ARG_OF_PERICENTER":92.0171,"MEAN_ANOMALY":268.2501,"EPHEMERIS_TYPE":0,"CLASSIFICATION_TYPE":"U","NORAD_CAT_ID":57193,"ELEMENT_SET_NO":999,"REV_AT_EPOCH":14927,"BSTAR":0.00064982524,"MEAN_MOTION_DOT":0.00018494,"MEAN_MOTION_DDOT":0},{"OBJECT_NAME":"STARLINK-34768","OBJECT_ID":"2025-167T","EPOCH":"2026-03-09T04:46:49.943424","MEAN_MOTION":15.30193923,"ECCENTRICITY":0.00011136,"INCLINATION":53.162,"RA_OF_ASC_NODE":29.0121,"ARG_OF_PERICENTER":92.0767,"MEAN_ANOMALY":268.0361,"EPHEMERIS_TYPE":0,"CLASSIFICATION_TYPE":"U","NORAD_CAT_ID":65095,"ELEMENT_SET_NO":999,"REV_AT_EPOCH":3340,"BSTAR":0.00095792648,"MEAN_MOTION_DOT":0.00028114,"MEAN_MOTION_DDOT":0}]
